[{"OBJECT_NAME":"STARLINK-4152","OBJECT_ID":"2022-083E","EPOCH":"2026-03-09T14:41:26.153664","MEAN_MOTION":15.0883754,"ECCENTRICITY":0.0001398,"INCLINATION":53.2186,"RA_OF_ASC_NODE":174.4695,"ARG_OF_PERICENTER":92.2733,"MEAN_ANOMALY":267.8419,"EPHEMERIS_TYPE":0,"CLASSIFICATION_TYPE":"U","NORAD_CAT_ID":53136,"ELEMENT_SET_NO":999,"REV_AT_EPOCH":20219,"BSTAR":9.4972e-6,"MEAN_MOTION_DOT":-1.37e-6,"MEAN_MOTION_DDOT":0},{"OBJECT_NAME":"OBJECT D","OBJECT_ID":"2025-013D","EPOCH":"2026-03-09T22:45:56.369376","MEAN_MOTION":15.10588544,"ECCENTRICITY":0.0008827,"INCLINATION":97.6457,"RA_OF_ASC_NODE":238.3603,"ARG_OF_PERICENTER":18.3993,"MEAN_ANOMALY":341.7554,"EPHEMERIS_TYPE":0,"CLASSIFICATION_TYPE":"U","NORAD_CAT_ID":62732,"ELEMENT_SET_NO":999,"REV_AT_EPOCH":6229,"BSTAR":0.00036300228,"MEAN_MOTION_DOT":5.935e-5,"MEAN_MOTION_DDOT":0}]
